CCSDS_OMM_VERS = 2.0
CREATION_DATE  = 
ORIGINATOR     = 

OBJECT_NAME    = ALOS (DAICHI)
OBJECT_ID      = 2006-002A
CENTER_NAME    = EARTH
REF_FRAME      = TEME
TIME_SYSTEM    = UTC
MEAN_ELEMENT_THEORY = SGP/SGP4

EPOCH          = 2025-12-06T15:14:41.401824
MEAN_MOTION    = 14.69459498
ECCENTRICITY   = .00008265
INCLINATION    = 98.1085
RA_OF_ASC_NODE = 292.1658
ARG_OF_PERICENTER = 112.4143
MEAN_ANOMALY   = 247.7151

EPHEMERIS_TYPE = 0
CLASSIFICATION_TYPE = U
NORAD_CAT_ID   = 28931
ELEMENT_SET_NO = 999
REV_AT_EPOCH   = 5981
BSTAR          = .51516631E-3
MEAN_MOTION_DOT = .3003E-4
MEAN_MOTION_DDOT = 0

CCSDS_OMM_VERS = 2.0
CREATION_DATE  = 
ORIGINATOR     = 

OBJECT_NAME    = H-2A R/B
OBJECT_ID      = 2006-002B
CENTER_NAME    = EARTH
REF_FRAME      = TEME
TIME_SYSTEM    = UTC
MEAN_ELEMENT_THEORY = SGP/SGP4

EPOCH          = 2025-12-06T15:22:42.049344
MEAN_MOTION    = 15.14382070
ECCENTRICITY   = .00544572
INCLINATION    = 98.2320
RA_OF_ASC_NODE = 114.8925
ARG_OF_PERICENTER = 197.0027
MEAN_ANOMALY   = 162.9380

EPHEMERIS_TYPE = 0
CLASSIFICATION_TYPE = U
NORAD_CAT_ID   = 28932
ELEMENT_SET_NO = 999
REV_AT_EPOCH   = 8034
BSTAR          = .91471164E-3
MEAN_MOTION_DOT = .17366E-3
MEAN_MOTION_DDOT = 0

CCSDS_OMM_VERS = 2.0
CREATION_DATE  = 
ORIGINATOR     = 

OBJECT_NAME    = RESURS-DK 1
OBJECT_ID      = 2006-021A
CENTER_NAME    = EARTH
REF_FRAME      = TEME
TIME_SYSTEM    = UTC
MEAN_ELEMENT_THEORY = SGP/SGP4

EPOCH          = 2025-12-06T09:55:49.837728
MEAN_MOTION    = 15.12107015
ECCENTRICITY   = .00077614
INCLINATION    = 69.9340
RA_OF_ASC_NODE = 118.1849
ARG_OF_PERICENTER = 263.4376
MEAN_ANOMALY   = 96.5906

EPHEMERIS_TYPE = 0
CLASSIFICATION_TYPE = U
NORAD_CAT_ID   = 29228
ELEMENT_SET_NO = 999
REV_AT_EPOCH   = 7342
BSTAR          = .31037999E-3
MEAN_MOTION_DOT = .5256E-4
MEAN_MOTION_DDOT = 0

CCSDS_OMM_VERS = 2.0
CREATION_DATE  = 
ORIGINATOR     = 

OBJECT_NAME    = CZ-4B R/B
OBJECT_ID      = 2006-046C
CENTER_NAME    = EARTH
REF_FRAME      = TEME
TIME_SYSTEM    = UTC
MEAN_ELEMENT_THEORY = SGP/SGP4

EPOCH          = 2025-12-06T15:07:05.892384
MEAN_MOTION    = 15.15779727
ECCENTRICITY   = .00328666
INCLINATION    = 97.5736
RA_OF_ASC_NODE = 20.7850
ARG_OF_PERICENTER = 228.2352
MEAN_ANOMALY   = 131.6070

EPHEMERIS_TYPE = 0
CLASSIFICATION_TYPE = U
NORAD_CAT_ID   = 29507
ELEMENT_SET_NO = 999
REV_AT_EPOCH   = 4594
BSTAR          = .42352518E-3
MEAN_MOTION_DOT = .8127E-4
MEAN_MOTION_DDOT = 0

CCSDS_OMM_VERS = 2.0
CREATION_DATE  = 
ORIGINATOR     = 

OBJECT_NAME    = CZ-2C R/B
OBJECT_ID      = 2007-010B
CENTER_NAME    = EARTH
REF_FRAME      = TEME
TIME_SYSTEM    = UTC
MEAN_ELEMENT_THEORY = SGP/SGP4

EPOCH          = 2025-12-06T14:08:37.190976
MEAN_MOTION    = 14.20205945
ECCENTRICITY   = .00586477
INCLINATION    = 98.3974
RA_OF_ASC_NODE = 93.5498
ARG_OF_PERICENTER = 203.9434
MEAN_ANOMALY   = 155.9014

EPHEMERIS_TYPE = 0
CLASSIFICATION_TYPE = U
NORAD_CAT_ID   = 31114
ELEMENT_SET_NO = 999
REV_AT_EPOCH   = 96650
BSTAR          = .17635202E-3
MEAN_MOTION_DOT = .342E-5
MEAN_MOTION_DDOT = 0

CCSDS_OMM_VERS = 2.0
CREATION_DATE  = 
ORIGINATOR     = 

OBJECT_NAME    = COSMO-SKYMED 1
OBJECT_ID      = 2007-023A
CENTER_NAME    = EARTH
REF_FRAME      = TEME
TIME_SYSTEM    = UTC
MEAN_ELEMENT_THEORY = SGP/SGP4

EPOCH          = 2025-12-06T13:35:57.217344
MEAN_MOTION    = 14.95696573
ECCENTRICITY   = .00011621
INCLINATION    = 97.8835
RA_OF_ASC_NODE = 165.9259
ARG_OF_PERICENTER = 78.6726
MEAN_ANOMALY   = 281.4625

EPHEMERIS_TYPE = 0
CLASSIFICATION_TYPE = U
NORAD_CAT_ID   = 31598
ELEMENT_SET_NO = 999
REV_AT_EPOCH   = 98
BSTAR          = .54226524E-3
MEAN_MOTION_DOT = .5978E-4
MEAN_MOTION_DDOT = 0

CCSDS_OMM_VERS = 2.0
CREATION_DATE  = 
ORIGINATOR     = 

OBJECT_NAME    = COSMOS 2428
OBJECT_ID      = 2007-029A
CENTER_NAME    = EARTH
REF_FRAME      = TEME
TIME_SYSTEM    = UTC
MEAN_ELEMENT_THEORY = SGP/SGP4

EPOCH          = 2025-12-06T13:53:41.440704
MEAN_MOTION    = 14.12887833
ECCENTRICITY   = .00033168
INCLINATION    = 70.9372
RA_OF_ASC_NODE = 38.8151
ARG_OF_PERICENTER = 32.6739
MEAN_ANOMALY   = 327.4587

EPHEMERIS_TYPE = 0
CLASSIFICATION_TYPE = U
NORAD_CAT_ID   = 31792
ELEMENT_SET_NO = 999
REV_AT_EPOCH   = 95094
BSTAR          = .80518607E-4
MEAN_MOTION_DOT = .102E-5
MEAN_MOTION_DDOT = 0

CCSDS_OMM_VERS = 2.0
CREATION_DATE  = 
ORIGINATOR     = 

OBJECT_NAME    = SL-16 R/B
OBJECT_ID      = 2007-029B
CENTER_NAME    = EARTH
REF_FRAME      = TEME
TIME_SYSTEM    = UTC
MEAN_ELEMENT_THEORY = SGP/SGP4

EPOCH          = 2025-12-06T12:58:42.714624
MEAN_MOTION    = 14.14815650
ECCENTRICITY   = .00023652
INCLINATION    = 70.9765
RA_OF_ASC_NODE = 8.1892
ARG_OF_PERICENTER = 264.4837
MEAN_ANOMALY   = 257.2055

EPHEMERIS_TYPE = 0
CLASSIFICATION_TYPE = U
NORAD_CAT_ID   = 31793
ELEMENT_SET_NO = 999
REV_AT_EPOCH   = 95219
BSTAR          = -.6100532E-4
MEAN_MOTION_DOT = -.166E-5
MEAN_MOTION_DDOT = 0

CCSDS_OMM_VERS = 2.0
CREATION_DATE  = 
ORIGINATOR     = 

OBJECT_NAME    = KORONAS-FOTON
OBJECT_ID      = 2009-003A
CENTER_NAME    = EARTH
REF_FRAME      = TEME
TIME_SYSTEM    = UTC
MEAN_ELEMENT_THEORY = SGP/SGP4

EPOCH          = 2025-12-06T14:03:43.792992
MEAN_MOTION    = 15.40976621
ECCENTRICITY   = .00129314
INCLINATION    = 82.4307
RA_OF_ASC_NODE = 12.4814
ARG_OF_PERICENTER = 127.8771
MEAN_ANOMALY   = 232.3647

EPHEMERIS_TYPE = 0
CLASSIFICATION_TYPE = U
NORAD_CAT_ID   = 33504
ELEMENT_SET_NO = 999
REV_AT_EPOCH   = 93139
BSTAR          = .36753146E-3
MEAN_MOTION_DOT = .15228E-3
MEAN_MOTION_DDOT = 0

CCSDS_OMM_VERS = 2.0
CREATION_DATE  = 
ORIGINATOR     = 

OBJECT_NAME    = CZ-2C R/B
OBJECT_ID      = 2011-030B
CENTER_NAME    = EARTH
REF_FRAME      = TEME
TIME_SYSTEM    = UTC
MEAN_ELEMENT_THEORY = SGP/SGP4

EPOCH          = 2025-12-06T16:03:03.710016
MEAN_MOTION    = 14.80870576
ECCENTRICITY   = .00515301
INCLINATION    = 97.8408
RA_OF_ASC_NODE = 294.9099
ARG_OF_PERICENTER = 293.9644
MEAN_ANOMALY   = 239.4474

EPHEMERIS_TYPE = 0
CLASSIFICATION_TYPE = U
NORAD_CAT_ID   = 37731
ELEMENT_SET_NO = 999
REV_AT_EPOCH   = 77632
BSTAR          = .41307974E-3
MEAN_MOTION_DOT = .3209E-4
MEAN_MOTION_DDOT = 0

CCSDS_OMM_VERS = 2.0
CREATION_DATE  = 
ORIGINATOR     = 

OBJECT_NAME    = H-2A R/B
OBJECT_ID      = 2012-025E
CENTER_NAME    = EARTH
REF_FRAME      = TEME
TIME_SYSTEM    = UTC
MEAN_ELEMENT_THEORY = SGP/SGP4

EPOCH          = 2025-12-06T14:43:38.010432
MEAN_MOTION    = 14.94385182
ECCENTRICITY   = .00438104
INCLINATION    = 98.4589
RA_OF_ASC_NODE = 295.3713
ARG_OF_PERICENTER = 256.8470
MEAN_ANOMALY   = 102.7857

EPHEMERIS_TYPE = 0
CLASSIFICATION_TYPE = U
NORAD_CAT_ID   = 38341
ELEMENT_SET_NO = 999
REV_AT_EPOCH   = 73431
BSTAR          = .55446145E-3
MEAN_MOTION_DOT = .6016E-4
MEAN_MOTION_DDOT = 0

CCSDS_OMM_VERS = 2.0
CREATION_DATE  = 
ORIGINATOR     = 

OBJECT_NAME    = SHIJIAN-16 (SJ-16)
OBJECT_ID      = 2013-057A
CENTER_NAME    = EARTH
REF_FRAME      = TEME
TIME_SYSTEM    = UTC
MEAN_ELEMENT_THEORY = SGP/SGP4

EPOCH          = 2025-12-06T13:36:54.610272
MEAN_MOTION    = 14.91961721
ECCENTRICITY   = .00175072
INCLINATION    = 74.9725
RA_OF_ASC_NODE = 1.3331
ARG_OF_PERICENTER = 334.3387
MEAN_ANOMALY   = 25.6931

EPHEMERIS_TYPE = 0
CLASSIFICATION_TYPE = U
NORAD_CAT_ID   = 39358
ELEMENT_SET_NO = 999
REV_AT_EPOCH   = 65761
BSTAR          = .21625068E-3
MEAN_MOTION_DOT = .2167E-4
MEAN_MOTION_DDOT = 0

